{
"type": "FeatureCollection",
"name": "geo_30_短期入所療養介護(療養病床を有する病院等）",
"crs": { "type": "name", "properties": { "name": "urn:ogc:def:crs:OGC:1.3:CRS84" } },
"features": [
{ "type": "Feature", "properties": { "内容": "紀の川クリニック【短期入所療養介護(療養病床を有する病院等）】和歌山県岩出市西国分501番地1", "url": "https://www.kaigokensaku.mhlw.go.jp/30/index.php?action_kouhyou_detail_004_kani=true&JigyosyoCd=3071800852-00&ServiceCd=&Type=search", "url2": "http://www.hakubunkai.com" }, "geometry": { "type": "Point", "coordinates": [ 135.3317166, 34.2655359 ] } }
]
}
