{
"type": "FeatureCollection",
"name": "geo_30_4",
"crs": { "type": "name", "properties": { "name": "urn:ogc:def:crs:OGC:1.3:CRS84" } },
"features": [
{ "type": "Feature", "properties": { "内容": "性の健康相談室　浜野助産院【4:助産院】和歌山県和歌山市鳴神９０９の１", "url": "https://www.iryou.teikyouseido.mhlw.go.jp/znk-web/juminkanja/S2430/initialize?prefCd=30&kikanCd=5004100000&kikanKbn=4", "url2": "https://www.waka-midwife.com/jyosanjyo/hamano-bonyuuikujisoudansitsu" }, "geometry": { "type": "Point", "coordinates": [ 135.209736, 34.234913 ] } },
{ "type": "Feature", "properties": { "内容": "育助産所【4:助産院】和歌山県田辺市朝日ヶ丘５番３号", "url": "https://www.iryou.teikyouseido.mhlw.go.jp/znk-web/juminkanja/S2430/initialize?prefCd=30&kikanCd=5004400000&kikanKbn=4", "url2": null }, "geometry": { "type": "Point", "coordinates": [ 135.390911, 33.733331 ] } },
{ "type": "Feature", "properties": { "内容": "バース・ハウス　なかにし　助産院【4:助産院】和歌山県御坊市湯川町小松原１３９", "url": "https://www.iryou.teikyouseido.mhlw.go.jp/znk-web/juminkanja/S2430/initialize?prefCd=30&kikanCd=5004600000&kikanKbn=4", "url2": null }, "geometry": { "type": "Point", "coordinates": [ 135.164256, 33.903644 ] } },
{ "type": "Feature", "properties": { "内容": "ひろ母乳育児相談室【4:助産院】和歌山県和歌山市楠本１－４５", "url": "https://www.iryou.teikyouseido.mhlw.go.jp/znk-web/juminkanja/S2430/initialize?prefCd=30&kikanCd=5004800000&kikanKbn=4", "url2": null }, "geometry": { "type": "Point", "coordinates": [ 135.254981, 34.261244 ] } },
{ "type": "Feature", "properties": { "内容": "リリーベル助産院【4:助産院】和歌山県和歌山市吹上５－１－２３－１０２", "url": "https://www.iryou.teikyouseido.mhlw.go.jp/znk-web/juminkanja/S2430/initialize?prefCd=30&kikanCd=5004900000&kikanKbn=4", "url2": null }, "geometry": { "type": "Point", "coordinates": [ 135.17435, 34.220636 ] } },
{ "type": "Feature", "properties": { "内容": "あつ子助産院【4:助産院】和歌山県和歌山市太田１丁目１－２３　フジパレス和歌山駅南２番館１０１", "url": "https://www.iryou.teikyouseido.mhlw.go.jp/znk-web/juminkanja/S2430/initialize?prefCd=30&kikanCd=5005300000&kikanKbn=4", "url2": null }, "geometry": { "type": "Point", "coordinates": [ 135.193265, 34.229024 ] } },
{ "type": "Feature", "properties": { "内容": "産前産後ケアルーム　Ｓｈｉｎ【4:助産院】和歌山県有田市初島町里１５４６－１", "url": "https://www.iryou.teikyouseido.mhlw.go.jp/znk-web/juminkanja/S2430/initialize?prefCd=30&kikanCd=5005600000&kikanKbn=4", "url2": null }, "geometry": { "type": "Point", "coordinates": [ 135.122471, 34.096176 ] } },
{ "type": "Feature", "properties": { "内容": "Ｂａｂｙ　ママサロン【4:助産院】和歌山県和歌山市有本４０１－１２", "url": "https://www.iryou.teikyouseido.mhlw.go.jp/znk-web/juminkanja/S2430/initialize?prefCd=30&kikanCd=5005700000&kikanKbn=4", "url2": "https://www.waka-midwife.com" }, "geometry": { "type": "Point", "coordinates": [ 135.199958, 34.2518 ] } },
{ "type": "Feature", "properties": { "内容": "マタニティハウス　ｃａｌｍ【4:助産院】和歌山県和歌山市紀三井寺４３８－９", "url": "https://www.iryou.teikyouseido.mhlw.go.jp/znk-web/juminkanja/S2430/initialize?prefCd=30&kikanCd=5005900000&kikanKbn=4", "url2": "www.maternity-calm.com" }, "geometry": { "type": "Point", "coordinates": [ 135.188407, 34.17678 ] } },
{ "type": "Feature", "properties": { "内容": "新生助産所【4:助産院】和歌山県西牟婁郡上富田町市ノ瀬２２５６－１５", "url": "https://www.iryou.teikyouseido.mhlw.go.jp/znk-web/juminkanja/S2430/initialize?prefCd=30&kikanCd=5006000000&kikanKbn=4", "url2": null }, "geometry": { "type": "Point", "coordinates": [ 135.460378, 33.717862 ] } },
{ "type": "Feature", "properties": { "内容": "ちえの和助産院【4:助産院】和歌山県西牟婁郡上富田町岩田２２００－２", "url": "https://www.iryou.teikyouseido.mhlw.go.jp/znk-web/juminkanja/S2430/initialize?prefCd=30&kikanCd=5006100000&kikanKbn=4", "url2": null }, "geometry": { "type": "Point", "coordinates": [ 135.441712, 33.711779 ] } },
{ "type": "Feature", "properties": { "内容": "翠助産院【4:助産院】和歌山県有田市宮原町東２１５", "url": "https://www.iryou.teikyouseido.mhlw.go.jp/znk-web/juminkanja/S2430/initialize?prefCd=30&kikanCd=5006200000&kikanKbn=4", "url2": "https://midori-josanin.jp" }, "geometry": { "type": "Point", "coordinates": [ 135.178356, 34.080985 ] } },
{ "type": "Feature", "properties": { "内容": "にじのわ助産院【4:助産院】和歌山県和歌山市栗栖５６－１０", "url": "https://www.iryou.teikyouseido.mhlw.go.jp/znk-web/juminkanja/S2430/initialize?prefCd=30&kikanCd=5006300000&kikanKbn=4", "url2": null }, "geometry": { "type": "Point", "coordinates": [ 135.226428, 34.243523 ] } },
{ "type": "Feature", "properties": { "内容": "産前産後ケアサポートフィーカ【4:助産院】和歌山県紀の川市貴志川町丸栖６６２", "url": "https://www.iryou.teikyouseido.mhlw.go.jp/znk-web/juminkanja/S2430/initialize?prefCd=30&kikanCd=5006500000&kikanKbn=4", "url2": "https://fika-sanzensango.com" }, "geometry": { "type": "Point", "coordinates": [ 135.323743, 34.232001 ] } },
{ "type": "Feature", "properties": { "内容": "ゆるり助産院【4:助産院】和歌山県和歌山市有家３２４－３　ラフォーレ壱番館１０２号", "url": "https://www.iryou.teikyouseido.mhlw.go.jp/znk-web/juminkanja/S2430/initialize?prefCd=30&kikanCd=5006600000&kikanKbn=4", "url2": null }, "geometry": { "type": "Point", "coordinates": [ 135.201515, 34.220859 ] } },
{ "type": "Feature", "properties": { "内容": "まある助産院【4:助産院】和歌山県田辺市秋津町９６－７", "url": "https://www.iryou.teikyouseido.mhlw.go.jp/znk-web/juminkanja/S2430/initialize?prefCd=30&kikanCd=5006700000&kikanKbn=4", "url2": null }, "geometry": { "type": "Point", "coordinates": [ 135.390993, 33.747357 ] } },
{ "type": "Feature", "properties": { "内容": "Ｇｒａｃｅ　Ｍａｔｅｒｎｉｔｙ　Ｈｏｍｅ【4:助産院】和歌山県和歌山市谷１０８－６", "url": "https://www.iryou.teikyouseido.mhlw.go.jp/znk-web/juminkanja/S2430/initialize?prefCd=30&kikanCd=5006800000&kikanKbn=4", "url2": null }, "geometry": { "type": "Point", "coordinates": [ 135.26984, 34.269882 ] } },
{ "type": "Feature", "properties": { "内容": "あかちゃんとママの寄り添いサポート”ここねっと”【4:助産院】和歌山県和歌山市小松原", "url": "https://www.iryou.teikyouseido.mhlw.go.jp/znk-web/juminkanja/S2430/initialize?prefCd=30&kikanCd=5007100000&kikanKbn=4", "url2": "https://lit.link/coconetsuzuki" }, "geometry": { "type": "Point", "coordinates": [ 135.170739, 34.23033 ] } },
{ "type": "Feature", "properties": { "内容": "ＴＳＵＧＵＭＩ助産院【4:助産院】和歌山県橋本市高野口町名古曽１１６１", "url": "https://www.iryou.teikyouseido.mhlw.go.jp/znk-web/juminkanja/S2430/initialize?prefCd=30&kikanCd=5007300000&kikanKbn=4", "url2": "https://mw-tsugumi.com/" }, "geometry": { "type": "Point", "coordinates": [ 135.561778, 34.309072 ] } },
{ "type": "Feature", "properties": { "内容": "母乳育児相談　ながさこ【4:助産院】和歌山県海南市且来１２８番地１１", "url": "https://www.iryou.teikyouseido.mhlw.go.jp/znk-web/juminkanja/S2430/initialize?prefCd=30&kikanCd=5007500000&kikanKbn=4", "url2": null }, "geometry": { "type": "Point", "coordinates": [ 135.233089, 34.173215 ] } },
{ "type": "Feature", "properties": { "内容": "岡本助産院【4:助産院】和歌山県和歌山市小雑賀２０７", "url": "https://www.iryou.teikyouseido.mhlw.go.jp/znk-web/juminkanja/S2430/initialize?prefCd=30&kikanCd=5100100000&kikanKbn=4", "url2": "http://www.eonet.ne.jp/~anlynina/" }, "geometry": { "type": "Point", "coordinates": [ 135.184322, 34.204972 ] } },
{ "type": "Feature", "properties": { "内容": "澤母乳育児相談室【4:助産院】和歌山県和歌山市新留丁３２", "url": "https://www.iryou.teikyouseido.mhlw.go.jp/znk-web/juminkanja/S2430/initialize?prefCd=30&kikanCd=5100300000&kikanKbn=4", "url2": null }, "geometry": { "type": "Point", "coordinates": [ 135.185794, 34.225136 ] } },
{ "type": "Feature", "properties": { "内容": "母乳育児相談はぐはぐ【4:助産院】和歌山県和歌山市古屋５０７－１７０", "url": "https://www.iryou.teikyouseido.mhlw.go.jp/znk-web/juminkanja/S2430/initialize?prefCd=30&kikanCd=5100600000&kikanKbn=4", "url2": null }, "geometry": { "type": "Point", "coordinates": [ 135.118771, 34.24866 ] } },
{ "type": "Feature", "properties": { "内容": "なぎ助産院【4:助産院】和歌山県岩出市水栖２６４－２", "url": "https://www.iryou.teikyouseido.mhlw.go.jp/znk-web/juminkanja/S2430/initialize?prefCd=30&kikanCd=5101000000&kikanKbn=4", "url2": null }, "geometry": { "type": "Point", "coordinates": [ 135.320253, 34.267661 ] } },
{ "type": "Feature", "properties": { "内容": "ちひろ助産院【4:助産院】和歌山県田辺市朝日ヶ丘３－２０", "url": "https://www.iryou.teikyouseido.mhlw.go.jp/znk-web/juminkanja/S2430/initialize?prefCd=30&kikanCd=5102000000&kikanKbn=4", "url2": "http://www.iiosan-chihiro.com/" }, "geometry": { "type": "Point", "coordinates": [ 135.39205, 33.733137 ] } },
{ "type": "Feature", "properties": { "内容": "マタニティーハウスはまじ助産院【4:助産院】和歌山県日高郡みなべ町堺６３７", "url": "https://www.iryou.teikyouseido.mhlw.go.jp/znk-web/juminkanja/S2430/initialize?prefCd=30&kikanCd=5102300000&kikanKbn=4", "url2": null }, "geometry": { "type": "Point", "coordinates": [ 135.333748, 33.74544 ] } },
{ "type": "Feature", "properties": { "内容": "やよい助産院【4:助産院】和歌山県西牟婁郡白浜町市鹿野９１０", "url": "https://www.iryou.teikyouseido.mhlw.go.jp/znk-web/juminkanja/S2430/initialize?prefCd=30&kikanCd=5102600000&kikanKbn=4", "url2": null }, "geometry": { "type": "Point", "coordinates": [ 135.535346, 33.655314 ] } },
{ "type": "Feature", "properties": { "内容": "かづこ助産院【4:助産院】和歌山県東牟婁郡那智勝浦町北浜１丁目１３番地", "url": "https://www.iryou.teikyouseido.mhlw.go.jp/znk-web/juminkanja/S2430/initialize?prefCd=30&kikanCd=5102800000&kikanKbn=4", "url2": "https://sanba-kazuko.com" }, "geometry": { "type": "Point", "coordinates": [ 135.943064, 33.630546 ] } },
{ "type": "Feature", "properties": { "内容": "さつき助産院【4:助産院】和歌山県東牟婁郡那智勝浦町天満１４０－５", "url": "https://www.iryou.teikyouseido.mhlw.go.jp/znk-web/juminkanja/S2430/initialize?prefCd=30&kikanCd=5103100000&kikanKbn=4", "url2": null }, "geometry": { "type": "Point", "coordinates": [ 135.933286, 33.639045 ] } },
{ "type": "Feature", "properties": { "内容": "ここみさぽーと（出張助産所）【4:助産院】和歌山県岩出市野上野３０－８", "url": "https://www.iryou.teikyouseido.mhlw.go.jp/znk-web/juminkanja/S2430/initialize?prefCd=30&kikanCd=5103300000&kikanKbn=4", "url2": null }, "geometry": { "type": "Point", "coordinates": [ 135.319253, 34.276938 ] } },
{ "type": "Feature", "properties": { "内容": "むとう助産院【4:助産院】和歌山県和歌山市内原５８２番地の６", "url": "https://www.iryou.teikyouseido.mhlw.go.jp/znk-web/juminkanja/S2430/initialize?prefCd=30&kikanCd=5103600000&kikanKbn=4", "url2": "https://muto-jyosanin.amebaownd.com" }, "geometry": { "type": "Point", "coordinates": [ 135.197406, 34.176308 ] } },
{ "type": "Feature", "properties": { "内容": "福助産院【4:助産院】和歌山県田辺市明洋二丁目１０－３６", "url": "https://www.iryou.teikyouseido.mhlw.go.jp/znk-web/juminkanja/S2430/initialize?prefCd=30&kikanCd=5103700000&kikanKbn=4", "url2": "https://www.fuku-josanin.com" }, "geometry": { "type": "Point", "coordinates": [ 135.360718, 33.741801 ] } },
{ "type": "Feature", "properties": { "内容": "大西助産院　（出張専門）【4:助産院】和歌山県海南市重根２１４８－１８", "url": "https://www.iryou.teikyouseido.mhlw.go.jp/znk-web/juminkanja/S2430/initialize?prefCd=30&kikanCd=5103800000&kikanKbn=4", "url2": null }, "geometry": { "type": "Point", "coordinates": [ 135.243931, 34.151561 ] } },
{ "type": "Feature", "properties": { "内容": "和の子みらい助産院【4:助産院】和歌山県紀の川市名手西野２８５－２", "url": "https://www.iryou.teikyouseido.mhlw.go.jp/znk-web/juminkanja/S2430/initialize?prefCd=30&kikanCd=5305200001&kikanKbn=4", "url2": "https://www.midwifemap.com/mysite/wanoko/" }, "geometry": { "type": "Point", "coordinates": [ 135.433863, 34.272322 ] } }
]
}
