{
"type": "FeatureCollection",
"name": "geo_30_1",
"crs": { "type": "name", "properties": { "name": "urn:ogc:def:crs:OGC:1.3:CRS84" } },
"features": [
{ "type": "Feature", "properties": { "内容": "日本赤十字社和歌山医療センター【1:病院】【診療科目:感染症内科_血液内科_糖尿病・内分泌内科_脳神経内科_呼吸器内科_循環器内科_消化器内科_腎臓内科_腫瘍内科_漢方内科_緩和ケア内科_脳神経外科_呼吸器外科_心臓血管外科_消化器外科_乳腺外科_整形外科_形成外科_小児科_小児外科_産婦人科_眼科_耳鼻いんこう科_皮膚科_泌尿器科_精神科_心療内科_歯科口腔外科_リウマチ科_リハビリテーション科_放射線診断科_放射線治療科_病理診断科_救急科_麻酔科】【一般病床数:692療養病床数:0精神病床数:0感染症病床数:8合計病床数:700】和歌山県和歌山市小松原通四丁目２０番地", "url": "https://www.iryou.teikyouseido.mhlw.go.jp/znk-web/juminkanja/S2430/initialize?prefCd=30&kikanCd=1000100000&kikanKbn=1", "url2": "https://www.wakayama-med.jrc.or.jp/" }, "geometry": { "type": "Point", "coordinates": [ 135.168712, 34.220303 ] } },
{ "type": "Feature", "properties": { "内容": "浜病院【1:病院】【診療科目:内科_糖尿病内科_消化器内科_内視鏡内科_外科_リハビリテーション科_放射線科】【一般病床数:0療養病床数:115精神病床数:0感染症病床数:0合計病床数:115】和歌山県和歌山市吹上２－４－７", "url": "https://www.iryou.teikyouseido.mhlw.go.jp/znk-web/juminkanja/S2430/initialize?prefCd=30&kikanCd=1000200000&kikanKbn=1", "url2": "https://hama,hospital.com" }, "geometry": { "type": "Point", "coordinates": [ 135.170073, 34.22147 ] } },
{ "type": "Feature", "properties": { "内容": "琴の浦リハビリテーションセンター付属病院【1:病院】【診療科目:脳神経内科_脳神経外科_整形外科_泌尿器科_リウマチ科_リハビリテーション科_麻酔科】【一般病床数:48療養病床数:60精神病床数:0感染症病床数:0合計病床数:108】和歌山県和歌山市毛見１４５１", "url": "https://www.iryou.teikyouseido.mhlw.go.jp/znk-web/juminkanja/S2430/initialize?prefCd=30&kikanCd=1000300000&kikanKbn=1", "url2": "http://www.kotonoura.or.jp" }, "geometry": { "type": "Point", "coordinates": [ 135.18513, 34.157921 ] } },
{ "type": "Feature", "properties": { "内容": "愛徳医療福祉センター【1:病院】【診療科目:内科_整形外科_小児科_泌尿器科_精神科_リハビリテーション科】【一般病床数:60療養病床数:0精神病床数:0感染症病床数:0合計病床数:60】和歌山県和歌山市今福３－５－４１", "url": "https://www.iryou.teikyouseido.mhlw.go.jp/znk-web/juminkanja/S2430/initialize?prefCd=30&kikanCd=1000400000&kikanKbn=1", "url2": "http://aitoku.or.jp" }, "geometry": { "type": "Point", "coordinates": [ 135.163352, 34.211415 ] } },
{ "type": "Feature", "properties": { "内容": "誠佑記念病院【1:病院】【診療科目:内科_循環器内科_外科_血管外科_消化器外科_整形外科】【一般病床数:80療養病床数:0精神病床数:0感染症病床数:0合計病床数:80】和歌山県和歌山市西田井３９１", "url": "https://www.iryou.teikyouseido.mhlw.go.jp/znk-web/juminkanja/S2430/initialize?prefCd=30&kikanCd=1000500000&kikanKbn=1", "url2": "http://www.seiyu-hp.jp/" }, "geometry": { "type": "Point", "coordinates": [ 135.236704, 34.254356 ] } },
{ "type": "Feature", "properties": { "内容": "瀬藤病院【1:病院】【診療科目:内科_循環器内科_消化器内科_リハビリテーション科_放射線科】【一般病床数:0療養病床数:20精神病床数:0感染症病床数:0合計病床数:20】和歌山県和歌山市岡山丁７１", "url": "https://www.iryou.teikyouseido.mhlw.go.jp/znk-web/juminkanja/S2430/initialize?prefCd=30&kikanCd=1000900000&kikanKbn=1", "url2": "https://koujin.co/setoh-hp/" }, "geometry": { "type": "Point", "coordinates": [ 135.176211, 34.22658 ] } },
{ "type": "Feature", "properties": { "内容": "橋本病院【1:病院】【診療科目:内科_血液内科_糖尿病内科_糖尿病・代謝内科_呼吸器内科_循環器内科_消化器内科_外科_消化器外科_肛門外科_整形外科_皮膚科_泌尿器科_精神科_心療内科_リハビリテーション科_放射線科_麻酔科】【一般病床数:60療養病床数:58精神病床数:0感染症病床数:0合計病床数:118】和歌山県和歌山市堀止南ノ丁４－３１", "url": "https://www.iryou.teikyouseido.mhlw.go.jp/znk-web/juminkanja/S2430/initialize?prefCd=30&kikanCd=1001000000&kikanKbn=1", "url2": "http://hashimoto-hp.or.jp" }, "geometry": { "type": "Point", "coordinates": [ 135.170796, 34.212248 ] } },
{ "type": "Feature", "properties": { "内容": "医療法人　田村病院【1:病院】【診療科目:脳神経内科_精神科】【一般病床数:0療養病床数:0精神病床数:174感染症病床数:0合計病床数:174】和歌山県和歌山市小倉６４５", "url": "https://www.iryou.teikyouseido.mhlw.go.jp/znk-web/juminkanja/S2430/initialize?prefCd=30&kikanCd=1001200000&kikanKbn=1", "url2": "http://www.tamura-hsp.or.jp/" }, "geometry": { "type": "Point", "coordinates": [ 135.286618, 34.249246 ] } },
{ "type": "Feature", "properties": { "内容": "医療法人　旭会　和歌浦病院【1:病院】【診療科目:精神科_心療内科】【一般病床数:0療養病床数:0精神病床数:172感染症病床数:0合計病床数:172】和歌山県和歌山市和歌浦東３－２－３８", "url": "https://www.iryou.teikyouseido.mhlw.go.jp/znk-web/juminkanja/S2430/initialize?prefCd=30&kikanCd=1001300000&kikanKbn=1", "url2": "http://www.wakaura-hosp.net/" }, "geometry": { "type": "Point", "coordinates": [ 135.176768, 34.190778 ] } },
{ "type": "Feature", "properties": { "内容": "宮本病院【1:病院】【診療科目:精神科_心療内科】【一般病床数:0療養病床数:0精神病床数:283感染症病床数:0合計病床数:283】和歌山県和歌山市塩屋３－６－１", "url": "https://www.iryou.teikyouseido.mhlw.go.jp/znk-web/juminkanja/S2430/initialize?prefCd=30&kikanCd=1001400000&kikanKbn=1", "url2": "https://www.miyamoto-hp.jp" }, "geometry": { "type": "Point", "coordinates": [ 135.175379, 34.198416 ] } },
{ "type": "Feature", "properties": { "内容": "和歌浦中央病院【1:病院】【診療科目:内科_血液内科_脳神経内科_循環器内科_消化器内科_外科_血管外科_乳腺外科_整形外科_小児科_眼科_皮膚科_泌尿器科_リハビリテーション科】【一般病床数:108療養病床数:54精神病床数:0感染症病床数:0合計病床数:162】和歌山県和歌山市塩屋６－２－７０", "url": "https://www.iryou.teikyouseido.mhlw.go.jp/znk-web/juminkanja/S2430/initialize?prefCd=30&kikanCd=1001500000&kikanKbn=1", "url2": "http://www.wachuohp.or.jp" }, "geometry": { "type": "Point", "coordinates": [ 135.177796, 34.19525 ] } },
{ "type": "Feature", "properties": { "内容": "宇都宮病院【1:病院】【診療科目:内科_呼吸器内科_循環器内科_胃腸内科_老年内科_ペインクリニック内科_肛門外科_整形外科_形成外科_美容外科_皮膚科_放射線科_麻酔科】【一般病床数:0療養病床数:80精神病床数:0感染症病床数:0合計病床数:80】和歌山県和歌山市鳴神５０５－４", "url": "https://www.iryou.teikyouseido.mhlw.go.jp/znk-web/juminkanja/S2430/initialize?prefCd=30&kikanCd=1001700000&kikanKbn=1", "url2": "http://www.utsunomiya-hospital.com" }, "geometry": { "type": "Point", "coordinates": [ 135.214375, 34.227109 ] } },
{ "type": "Feature", "properties": { "内容": "藤民病院【1:病院】【診療科目:内科_消化器内科_外科_整形外科_精神科_リハビリテーション科】【一般病床数:0療養病床数:93精神病床数:0感染症病床数:0合計病床数:93】和歌山県和歌山市塩屋３－６－２", "url": "https://www.iryou.teikyouseido.mhlw.go.jp/znk-web/juminkanja/S2430/initialize?prefCd=30&kikanCd=1001800000&kikanKbn=1", "url2": "https://www.fujitami.jp/" }, "geometry": { "type": "Point", "coordinates": [ 135.175823, 34.197944 ] } },
{ "type": "Feature", "properties": { "内容": "伏虎リハビリテーション病院【1:病院】【診療科目:内科_血液内科_循環器内科_脳神経外科_整形外科_皮膚科_泌尿器科_美容皮膚科_リウマチ科_リハビリテーション科_放射線科】【一般病床数:36療養病床数:31精神病床数:0感染症病床数:0合計病床数:67】和歌山県和歌山市畑屋敷東ノ丁１番地", "url": "https://www.iryou.teikyouseido.mhlw.go.jp/znk-web/juminkanja/S2430/initialize?prefCd=30&kikanCd=1001900000&kikanKbn=1", "url2": "http://nakatani.wakayama.jp/" }, "geometry": { "type": "Point", "coordinates": [ 135.182796, 34.235213 ] } },
{ "type": "Feature", "properties": { "内容": "今村病院【1:病院】【診療科目:内科_外科_脳神経外科_リハビリテーション科_放射線科】【一般病床数:52療養病床数:0精神病床数:0感染症病床数:0合計病床数:52】和歌山県和歌山市砂山南２－４－２１", "url": "https://www.iryou.teikyouseido.mhlw.go.jp/znk-web/juminkanja/S2430/initialize?prefCd=30&kikanCd=1002000000&kikanKbn=1", "url2": "https://www.imamura.or.jp" }, "geometry": { "type": "Point", "coordinates": [ 135.159796, 34.218581 ] } },
{ "type": "Feature", "properties": { "内容": "医療法人福慈会　福外科病院【1:病院】【診療科目:内科_代謝内科_内分泌内科_循環器内科_消化器内科_外科_消化器外科_肛門外科_リハビリテーション科_放射線科_麻酔科】【一般病床数:54療養病床数:0精神病床数:0感染症病床数:0合計病床数:54】和歌山県和歌山市和歌浦東３－５－３１", "url": "https://www.iryou.teikyouseido.mhlw.go.jp/znk-web/juminkanja/S2430/initialize?prefCd=30&kikanCd=1002100000&kikanKbn=1", "url2": "http://www.fukugeka.or.jp/" }, "geometry": { "type": "Point", "coordinates": [ 135.177712, 34.189084 ] } },
{ "type": "Feature", "properties": { "内容": "医療法人裕紫会　中谷病院【1:病院】【診療科目:内科_糖尿病・代謝内科_呼吸器内科_循環器内科_消化器内科_神経内科_内視鏡内科_外科_整形外科_泌尿器科_リハビリテーション科_放射線科】【一般病床数:135療養病床数:60精神病床数:0感染症病床数:0合計病床数:195】和歌山県和歌山市鳴神１２３－１", "url": "https://www.iryou.teikyouseido.mhlw.go.jp/znk-web/juminkanja/S2430/initialize?prefCd=30&kikanCd=1002200000&kikanKbn=1", "url2": "http://www.kikyokai.or.jp" }, "geometry": { "type": "Point", "coordinates": [ 135.211458, 34.225942 ] } },
{ "type": "Feature", "properties": { "内容": "稲田病院【1:病院】【診療科目:内科_消化器内科_眼科_リハビリテーション科】【一般病床数:30療養病床数:42精神病床数:0感染症病床数:0合計病床数:72】和歌山県和歌山市和田１１７５", "url": "https://www.iryou.teikyouseido.mhlw.go.jp/znk-web/juminkanja/S2430/initialize?prefCd=30&kikanCd=1002400000&kikanKbn=1", "url2": "http://www.inada-med.or.jp" }, "geometry": { "type": "Point", "coordinates": [ 135.206765, 34.206916 ] } },
{ "type": "Feature", "properties": { "内容": "角谷整形外科病院【1:病院】【診療科目:内科_循環器内科_整形外科_形成外科_美容皮膚科_リウマチ科_リハビリテーション科_放射線科_麻酔科】【一般病床数:70療養病床数:0精神病床数:0感染症病床数:0合計病床数:70】和歌山県和歌山市吉田３３７", "url": "https://www.iryou.teikyouseido.mhlw.go.jp/znk-web/juminkanja/S2430/initialize?prefCd=30&kikanCd=1002500000&kikanKbn=1", "url2": "http://www.sumiya.or.jp/access/indexhtml" }, "geometry": { "type": "Point", "coordinates": [ 135.190181, 34.236884 ] } },
{ "type": "Feature", "properties": { "内容": "高山病院【1:病院】【診療科目:内科_呼吸器内科_循環器内科_消化器内科_胃腸内科_人工透析内科_外科_肛門外科_整形外科_小児科_皮膚科_リハビリテーション科_放射線科_麻酔科】【一般病床数:50療養病床数:0精神病床数:0感染症病床数:0合計病床数:50】和歌山県和歌山市小雑賀３－１－１１", "url": "https://www.iryou.teikyouseido.mhlw.go.jp/znk-web/juminkanja/S2430/initialize?prefCd=30&kikanCd=1002700000&kikanKbn=1", "url2": null }, "geometry": { "type": "Point", "coordinates": [ 135.1856, 34.21361 ] } },
{ "type": "Feature", "properties": { "内容": "和歌山生協病院【1:病院】【診療科目:内科_糖尿病・代謝内科_呼吸器内科_循環器内科_消化器内科_腎臓内科_神経内科_外科_消化器外科_肛門外科_小児科_アレルギー科_リウマチ科_リハビリテーション科_放射線科_麻酔科】【一般病床数:149療養病床数:0精神病床数:0感染症病床数:0合計病床数:149】和歌山県和歌山市有本１４３－１", "url": "https://www.iryou.teikyouseido.mhlw.go.jp/znk-web/juminkanja/S2430/initialize?prefCd=30&kikanCd=1002800000&kikanKbn=1", "url2": "https://www.wakayama-coop-h.com/" }, "geometry": { "type": "Point", "coordinates": [ 135.196819, 34.245301 ] } },
{ "type": "Feature", "properties": { "内容": "上山病院【1:病院】【診療科目:内科_呼吸器内科_循環器内科_消化器内科_胃腸内科_内視鏡内科_外科_呼吸器外科_消化器外科_胃腸外科_乳腺外科_肛門外科_整形外科_小児外科_皮膚科_リハビリテーション科_放射線科_麻酔科】【一般病床数:26療養病床数:30精神病床数:0感染症病床数:0合計病床数:56】和歌山県和歌山市内原９９８", "url": "https://www.iryou.teikyouseido.mhlw.go.jp/znk-web/juminkanja/S2430/initialize?prefCd=30&kikanCd=1002900000&kikanKbn=1", "url2": "http://ueyama-hospital.or.jp/" }, "geometry": { "type": "Point", "coordinates": [ 135.190184, 34.171169 ] } },
{ "type": "Feature", "properties": { "内容": "向井病院【1:病院】【診療科目:内科_脳神経外科_精神科_心療内科_リハビリテーション科_放射線科】【一般病床数:21療養病床数:49精神病床数:0感染症病床数:0合計病床数:70】和歌山県和歌山市北野２８３", "url": "https://www.iryou.teikyouseido.mhlw.go.jp/znk-web/juminkanja/S2430/initialize?prefCd=30&kikanCd=1003300000&kikanKbn=1", "url2": "http://www.meiseikai-mukai-hospital.com/" }, "geometry": { "type": "Point", "coordinates": [ 135.247453, 34.268771 ] } },
{ "type": "Feature", "properties": { "内容": "嶋病院【1:病院】【診療科目:内科_循環器内科_胃腸内科_外科_肛門外科_整形外科_泌尿器科_精神科_リウマチ科_リハビリテーション科】【一般病床数:57療養病床数:0精神病床数:0感染症病床数:0合計病床数:57】和歌山県和歌山市西仲間町１－３０", "url": "https://www.iryou.teikyouseido.mhlw.go.jp/znk-web/juminkanja/S2430/initialize?prefCd=30&kikanCd=1003400000&kikanKbn=1", "url2": "http://www.shima-hp.jp" }, "geometry": { "type": "Point", "coordinates": [ 135.178877, 34.23694 ] } },
{ "type": "Feature", "properties": { "内容": "半羽胃腸病院【1:病院】【診療科目:内科_消化器内科_腎臓内科_外科_肛門外科_皮膚科_泌尿器科_精神科_リハビリテーション科_放射線科】【一般病床数:0療養病床数:51精神病床数:0感染症病床数:0合計病床数:51】和歌山県和歌山市堀止南ノ丁４－１１", "url": "https://www.iryou.teikyouseido.mhlw.go.jp/znk-web/juminkanja/S2430/initialize?prefCd=30&kikanCd=1003500000&kikanKbn=1", "url2": "https://hanbahp.com/" }, "geometry": { "type": "Point", "coordinates": [ 135.171546, 34.212193 ] } },
{ "type": "Feature", "properties": { "内容": "須佐病院【1:病院】【診療科目:内科_消化器内科_外科_脳神経外科_整形外科_リハビリテーション科_放射線科_麻酔科】【一般病床数:93療養病床数:0精神病床数:0感染症病床数:0合計病床数:93】和歌山県和歌山市吹屋町４－３０", "url": "https://www.iryou.teikyouseido.mhlw.go.jp/znk-web/juminkanja/S2430/initialize?prefCd=30&kikanCd=1003600000&kikanKbn=1", "url2": "http://susa-hospital.com/" }, "geometry": { "type": "Point", "coordinates": [ 135.189682, 34.225359 ] } },
{ "type": "Feature", "properties": { "内容": "医療法人　青松会　河西田村病院【1:病院】【診療科目:内科_呼吸器内科_循環器内科_消化器内科_神経内科_外科_整形外科_小児科_皮膚科_泌尿器科_リハビリテーション科_放射線科】【一般病床数:99療養病床数:0精神病床数:0感染症病床数:0合計病床数:99】和歌山県和歌山市島橋東ノ丁１－１１", "url": "https://www.iryou.teikyouseido.mhlw.go.jp/znk-web/juminkanja/S2430/initialize?prefCd=30&kikanCd=1003800000&kikanKbn=1", "url2": "http://www.seishou-kai.jp/" }, "geometry": { "type": "Point", "coordinates": [ 135.150407, 34.242856 ] } },
{ "type": "Feature", "properties": { "内容": "西和歌山病院【1:病院】【診療科目:内科_糖尿病・代謝内科_脳神経内科_呼吸器内科_循環器内科_消化器内科_腎臓内科_人工透析内科_整形外科_皮膚科_泌尿器科_リウマチ科_リハビリテーション科_放射線科】【一般病床数:60療養病床数:60精神病床数:0感染症病床数:0合計病床数:120】和歌山県和歌山市土入１７６", "url": "https://www.iryou.teikyouseido.mhlw.go.jp/znk-web/juminkanja/S2430/initialize?prefCd=30&kikanCd=1003900000&kikanKbn=1", "url2": "http://nishiwaka.or.jp" }, "geometry": { "type": "Point", "coordinates": [ 135.140241, 34.253021 ] } },
{ "type": "Feature", "properties": { "内容": "中江病院【1:病院】【診療科目:内科_糖尿病・代謝内科_脳神経内科_呼吸器内科_循環器内科_消化器内科_胃腸内科_内視鏡内科_外科_脳神経外科_整形外科_泌尿器科_リハビリテーション科_放射線科_麻酔科】【一般病床数:192療養病床数:0精神病床数:0感染症病床数:0合計病床数:192】和歌山県和歌山市船所３０－１", "url": "https://www.iryou.teikyouseido.mhlw.go.jp/znk-web/juminkanja/S2430/initialize?prefCd=30&kikanCd=1004000000&kikanKbn=1", "url2": "http://www.nakae.or.jp" }, "geometry": { "type": "Point", "coordinates": [ 135.180654, 34.25416 ] } },
{ "type": "Feature", "properties": { "内容": "和歌山県立医科大学附属病院【1:病院】【診療科目:血液内科_糖尿病・代謝内科_呼吸器内科_循環器内科_消化器内科_腎臓内科_神経内科_脳神経外科_呼吸器外科_気管食道外科_心臓血管外科_整形外科_形成外科_小児科_産婦人科_眼科_耳鼻いんこう科_皮膚科_泌尿器科_精神科_歯科口腔外科_リウマチ科_リハビリテーション科_放射線科_病理診断科_救急科_麻酔科】【一般病床数:760療養病床数:0精神病床数:40感染症病床数:0合計病床数:800】和歌山県和歌山市紀三井寺８１１－１", "url": "https://www.iryou.teikyouseido.mhlw.go.jp/znk-web/juminkanja/S2430/initialize?prefCd=30&kikanCd=1004100000&kikanKbn=1", "url2": "https://www.wakayama-med.ac.jp/hospital/" }, "geometry": { "type": "Point", "coordinates": [ 135.181934, 34.188029 ] } },
{ "type": "Feature", "properties": { "内容": "済生会　和歌山病院【1:病院】【診療科目:内科_糖尿病・代謝内科_循環器内科_消化器内科_腎臓内科_外科_脳神経外科_血管外科_整形外科_眼科_耳鼻いんこう科_皮膚科_泌尿器科_リハビリテーション科_放射線科_麻酔科】【一般病床数:200療養病床数:0精神病床数:0感染症病床数:0合計病床数:200】和歌山県和歌山市十二番丁４５", "url": "https://www.iryou.teikyouseido.mhlw.go.jp/znk-web/juminkanja/S2430/initialize?prefCd=30&kikanCd=1004200000&kikanKbn=1", "url2": "http://saiseikai-wakayama.org" }, "geometry": { "type": "Point", "coordinates": [ 135.173183, 34.231663 ] } },
{ "type": "Feature", "properties": { "内容": "笠松病院【1:病院】【診療科目:内科_消化器内科_外科_整形外科_リハビリテーション科】【一般病床数:0療養病床数:45精神病床数:0感染症病床数:0合計病床数:45】和歌山県海南市船尾１９６", "url": "https://www.iryou.teikyouseido.mhlw.go.jp/znk-web/juminkanja/S2430/initialize?prefCd=30&kikanCd=1004400000&kikanKbn=1", "url2": "http://kasamatsu.jp" }, "geometry": { "type": "Point", "coordinates": [ 135.206767, 34.158782 ] } },
{ "type": "Feature", "properties": { "内容": "石本病院【1:病院】【診療科目:内科_呼吸器内科_循環器内科_消化器内科_人工透析内科_外科_肛門外科_整形外科_皮膚科_泌尿器科_リハビリテーション科_放射線科】【一般病床数:26療養病床数:27精神病床数:0感染症病床数:0合計病床数:53】和歌山県海南市船尾３６５", "url": "https://www.iryou.teikyouseido.mhlw.go.jp/znk-web/juminkanja/S2430/initialize?prefCd=30&kikanCd=1004600000&kikanKbn=1", "url2": "http://www.ishimoto-hospital.jp/" }, "geometry": { "type": "Point", "coordinates": [ 135.195434, 34.159199 ] } },
{ "type": "Feature", "properties": { "内容": "国保野上厚生総合病院【1:病院】【診療科目:内科_呼吸器内科_循環器内科_消化器内科_神経内科_外科_脳神経外科_消化器外科_肛門外科_整形外科_婦人科_眼科_耳鼻いんこう科_泌尿器科_精神科_リハビリテーション科】【一般病床数:99療養病床数:0精神病床数:100感染症病床数:0合計病床数:199】和歌山県海草郡紀美野町小畑１９８", "url": "https://www.iryou.teikyouseido.mhlw.go.jp/znk-web/juminkanja/S2430/initialize?prefCd=30&kikanCd=1004800000&kikanKbn=1", "url2": "http://www.nokami-hospital.jp/" }, "geometry": { "type": "Point", "coordinates": [ 135.295232, 34.1637 ] } },
{ "type": "Feature", "properties": { "内容": "医療法人　恵友会　恵友病院【1:病院】【診療科目:内科_呼吸器内科_循環器内科_消化器内科_腎臓内科_外科_脳神経外科_消化器外科_泌尿器科_リハビリテーション科_放射線科_麻酔科】【一般病床数:50療養病床数:0精神病床数:0感染症病床数:0合計病床数:50】和歌山県海南市船尾２６４－２", "url": "https://www.iryou.teikyouseido.mhlw.go.jp/znk-web/juminkanja/S2430/initialize?prefCd=30&kikanCd=1004900000&kikanKbn=1", "url2": "http://www.keiyuu.com" }, "geometry": { "type": "Point", "coordinates": [ 135.199268, 34.15906 ] } },
{ "type": "Feature", "properties": { "内容": "公立那賀病院【1:病院】【診療科目:内科_血液内科_脳神経内科_呼吸器内科_循環器内科_腎臓内科_外科_脳神経外科_呼吸器外科_乳腺外科_胸部外科_整形外科_小児科_産婦人科_眼科_耳鼻いんこう科_皮膚科_泌尿器科_精神科_リウマチ科_リハビリテーション科_放射線科_病理診断科_臨床検査科_救急科_麻酔科】【一般病床数:300療養病床数:0精神病床数:0感染症病床数:4合計病床数:304】和歌山県紀の川市打田１２８２", "url": "https://www.iryou.teikyouseido.mhlw.go.jp/znk-web/juminkanja/S2430/initialize?prefCd=30&kikanCd=1005000000&kikanKbn=1", "url2": "http://www.nagahp.jp/" }, "geometry": { "type": "Point", "coordinates": [ 135.366415, 34.262885 ] } },
{ "type": "Feature", "properties": { "内容": "名手病院【1:病院】【診療科目:内科_循環器内科_人工透析内科_内視鏡内科_脳神経外科_整形外科_眼科_皮膚科_泌尿器科_リハビリテーション科_放射線科】【一般病床数:58療養病床数:46精神病床数:0感染症病床数:0合計病床数:104】和歌山県紀の川市名手市場２９４―１", "url": "https://www.iryou.teikyouseido.mhlw.go.jp/znk-web/juminkanja/S2430/initialize?prefCd=30&kikanCd=1005100000&kikanKbn=1", "url2": "https://nate-hospital.com/" }, "geometry": { "type": "Point", "coordinates": [ 135.438132, 34.272746 ] } },
{ "type": "Feature", "properties": { "内容": "紀の川病院【1:病院】【診療科目:精神科_神経科_心療内科】【一般病床数:0療養病床数:0精神病床数:199感染症病床数:0合計病床数:199】和歌山県岩出市吉田４７－１", "url": "https://www.iryou.teikyouseido.mhlw.go.jp/znk-web/juminkanja/S2430/initialize?prefCd=30&kikanCd=1005400000&kikanKbn=1", "url2": "http://www.kinokawa-hp.jp" }, "geometry": { "type": "Point", "coordinates": [ 135.280811, 34.269661 ] } },
{ "type": "Feature", "properties": { "内容": "富田病院【1:病院】【診療科目:内科_糖尿病内科_代謝・内分泌内科_呼吸器内科_循環器内科_胃腸内科_神経内科_内視鏡内科_リハビリテーション科_放射線科_美容外来】【一般病床数:49療養病床数:54精神病床数:0感染症病床数:0合計病床数:103】和歌山県岩出市紀泉台２", "url": "https://www.iryou.teikyouseido.mhlw.go.jp/znk-web/juminkanja/S2430/initialize?prefCd=30&kikanCd=1005500000&kikanKbn=1", "url2": "http://tomita.or.jp" }, "geometry": { "type": "Point", "coordinates": [ 135.293616, 34.280855 ] } },
{ "type": "Feature", "properties": { "内容": "殿田胃腸肛門病院【1:病院】【診療科目:内科_消化器内科_内視鏡内科_外科_消化器外科_肛門外科_リハビリテーション科_放射線科】【一般病床数:53療養病床数:0精神病床数:0感染症病床数:0合計病床数:53】和歌山県岩出市宮１１７－７", "url": "https://www.iryou.teikyouseido.mhlw.go.jp/znk-web/juminkanja/S2430/initialize?prefCd=30&kikanCd=1005600000&kikanKbn=1", "url2": "http://www.tonodakai.or.jp" }, "geometry": { "type": "Point", "coordinates": [ 135.314643, 34.254108 ] } },
{ "type": "Feature", "properties": { "内容": "橋本市民病院【1:病院】【診療科目:内科_血液内科_代謝内科_呼吸器内科_循環器内科_消化器内科_腫瘍内科_外科_脳神経外科_呼吸器外科_心臓血管外科_乳腺外科_整形外科_小児科_産婦人科_眼科_耳鼻いんこう科_皮膚科_泌尿器科_歯科口腔外科_リウマチ科_リハビリテーション科_放射線科_病理診断科_救急科_麻酔科】【一般病床数:300療養病床数:0精神病床数:0感染症病床数:0合計病床数:300】和歌山県橋本市小峰台２－８－１", "url": "https://www.iryou.teikyouseido.mhlw.go.jp/znk-web/juminkanja/S2430/initialize?prefCd=30&kikanCd=1005800000&kikanKbn=1", "url2": "http://www.hashimoto-hsp.jp" }, "geometry": { "type": "Point", "coordinates": [ 135.634612, 34.354214 ] } },
{ "type": "Feature", "properties": { "内容": "和歌山県立医科大学附属病院紀北分院【1:病院】【診療科目:内科_脳神経内科_循環器内科_外科_脳神経外科_整形外科_小児科_眼科_皮膚科_リウマチ科_リハビリテーション科_麻酔科】【一般病床数:80療養病床数:0精神病床数:0感染症病床数:4合計病床数:84】和歌山県伊都郡かつらぎ町妙寺２１９", "url": "https://www.iryou.teikyouseido.mhlw.go.jp/znk-web/juminkanja/S2430/initialize?prefCd=30&kikanCd=1005900000&kikanKbn=1", "url2": "http://www.wakayama-med.ac.jp/med/bun-in/index.html" }, "geometry": { "type": "Point", "coordinates": [ 135.530623, 34.301079 ] } },
{ "type": "Feature", "properties": { "内容": "紀の郷病院【1:病院】【診療科目:内科_神経内科_精神科】【一般病床数:0療養病床数:0精神病床数:120感染症病床数:0合計病床数:120】和歌山県伊都郡九度山町九度山１１３－６", "url": "https://www.iryou.teikyouseido.mhlw.go.jp/znk-web/juminkanja/S2430/initialize?prefCd=30&kikanCd=1006200000&kikanKbn=1", "url2": "http://www.satonokai.or.jp/publics/index/2/" }, "geometry": { "type": "Point", "coordinates": [ 135.564259, 34.29408 ] } },
{ "type": "Feature", "properties": { "内容": "社会医療法人　博寿会　山本病院【1:病院】【診療科目:内科_呼吸器内科_循環器内科_消化器内科_腫瘍内科_脳神経外科_整形外科_歯科_矯正歯科_小児歯科_リハビリテーション科_放射線科】【一般病床数:84療養病床数:0精神病床数:0感染症病床数:0合計病床数:84】和歌山県橋本市東家６－７－２６", "url": "https://www.iryou.teikyouseido.mhlw.go.jp/znk-web/juminkanja/S2430/initialize?prefCd=30&kikanCd=1006400000&kikanKbn=1", "url2": "http://yamamoto-hp.net/" }, "geometry": { "type": "Point", "coordinates": [ 135.605282, 34.313218 ] } },
{ "type": "Feature", "properties": { "内容": "医療法人　南労会　紀和病院【1:病院】【診療科目:内科_糖尿病・代謝内科_呼吸器内科_循環器内科_消化器内科_腎臓内科_人工透析内科_神経内科_内視鏡内科_疼痛緩和内科_外科_脳神経外科_消化器外科_乳腺外科_整形外科_皮膚科_泌尿器科_精神科_リハビリテーション科_放射線科_麻酔科】【一般病床数:241療養病床数:58精神病床数:0感染症病床数:0合計病床数:299】和歌山県橋本市岸上１８－１", "url": "https://www.iryou.teikyouseido.mhlw.go.jp/znk-web/juminkanja/S2430/initialize?prefCd=30&kikanCd=1006500000&kikanKbn=1", "url2": "http://www.nanroukai.or.jp/" }, "geometry": { "type": "Point", "coordinates": [ 135.582423, 34.305801 ] } },
{ "type": "Feature", "properties": { "内容": "有田市立病院【1:病院】【診療科目:内科_循環器内科_外科_脳神経外科_整形外科_小児科_産婦人科_眼科_耳鼻いんこう科_皮膚科_泌尿器科_救急科】【一般病床数:141療養病床数:0精神病床数:0感染症病床数:4合計病床数:145】和歌山県有田市宮崎町６", "url": "https://www.iryou.teikyouseido.mhlw.go.jp/znk-web/juminkanja/S2430/initialize?prefCd=30&kikanCd=1006600000&kikanKbn=1", "url2": "https://aridahp.arida.wakayama.jp/" }, "geometry": { "type": "Point", "coordinates": [ 135.120333, 34.080956 ] } },
{ "type": "Feature", "properties": { "内容": "和歌山県立こころの医療センター【1:病院】【診療科目:内科_精神科】【一般病床数:0療養病床数:0精神病床数:300感染症病床数:0合計病床数:300】和歌山県有田郡有田川町庄３１", "url": "https://www.iryou.teikyouseido.mhlw.go.jp/znk-web/juminkanja/S2430/initialize?prefCd=30&kikanCd=1006800000&kikanKbn=1", "url2": "http://www.pref.wakayama.lg.jp/prefg/050112/050112.htm" }, "geometry": { "type": "Point", "coordinates": [ 135.24338, 34.064627 ] } },
{ "type": "Feature", "properties": { "内容": "西岡病院【1:病院】【診療科目:内科_外科_脳神経外科_消化器外科_肛門外科_ペインクリニック外科_整形外科_形成外科_皮膚科_アレルギー科_リウマチ科_リハビリテーション科_放射線科_麻酔科】【一般病床数:60療養病床数:60精神病床数:0感染症病床数:0合計病床数:120】和歌山県有田郡有田川町小島２７８－１", "url": "https://www.iryou.teikyouseido.mhlw.go.jp/znk-web/juminkanja/S2430/initialize?prefCd=30&kikanCd=1006900000&kikanKbn=1", "url2": "https://www.nishioka-hp.net" }, "geometry": { "type": "Point", "coordinates": [ 135.196466, 34.065792 ] } },
{ "type": "Feature", "properties": { "内容": "有田南病院【1:病院】【診療科目:内科_消化器内科_腎臓内科_人工透析内科_眼科_皮膚科_泌尿器科_リウマチ科_リハビリテーション科_放射線科】【一般病床数:26療養病床数:45精神病床数:0感染症病床数:0合計病床数:71】和歌山県有田郡有田川町小島１５", "url": "https://www.iryou.teikyouseido.mhlw.go.jp/znk-web/juminkanja/S2430/initialize?prefCd=30&kikanCd=1007000000&kikanKbn=1", "url2": "http://www.akemikai.or.jp" }, "geometry": { "type": "Point", "coordinates": [ 135.201466, 34.067709 ] } },
{ "type": "Feature", "properties": { "内容": "済生会有田病院【1:病院】【診療科目:内科_循環器内科_外科_脳神経外科_心臓血管外科_消化器外科_乳腺外科_整形外科_形成外科_眼科_耳鼻いんこう科_皮膚科_泌尿器科_リハビリテーション科_放射線科】【一般病床数:149療養病床数:0精神病床数:0感染症病床数:0合計病床数:149】和歌山県有田郡湯浅町吉川５２－６", "url": "https://www.iryou.teikyouseido.mhlw.go.jp/znk-web/juminkanja/S2430/initialize?prefCd=30&kikanCd=1007100000&kikanKbn=1", "url2": "http://www.saiseikai-arida.jp/" }, "geometry": { "type": "Point", "coordinates": [ 135.193163, 34.045516 ] } },
{ "type": "Feature", "properties": { "内容": "ひだか病院【1:病院】【診療科目:内科_循環器内科_外科_脳神経外科_整形外科_形成外科_小児科_産婦人科_眼科_耳鼻いんこう科_皮膚科_泌尿器科_精神科_歯科口腔外科_リハビリテーション科_放射線科_救急科_麻酔科】【一般病床数:251療養病床数:0精神病床数:100感染症病床数:4合計病床数:355】和歌山県御坊市薗１１６－２", "url": "https://www.iryou.teikyouseido.mhlw.go.jp/znk-web/juminkanja/S2430/initialize?prefCd=30&kikanCd=1007200000&kikanKbn=1", "url2": "http://www.hidakagh.gobo.wakayama.jp/" }, "geometry": { "type": "Point", "coordinates": [ 135.154145, 33.895143 ] } },
{ "type": "Feature", "properties": { "内容": "北出病院【1:病院】【診療科目:内科_糖尿病内科_呼吸器内科_循環器内科_消化器内科_腎臓内科_外科_脳神経外科_呼吸器外科_血管外科_消化器外科_乳腺外科_肛門外科_胸部外科_整形外科_形成外科_小児科_小児アレルギー科_泌尿器科_歯科_矯正歯科_歯科口腔外科_小児歯科_リウマチ科_リハビリテーション科_放射線科_麻酔科_リウマチ・膠原病内科】【一般病床数:131療養病床数:51精神病床数:0感染症病床数:0合計病床数:182】和歌山県御坊市湯川町財部７２８－４", "url": "https://www.iryou.teikyouseido.mhlw.go.jp/znk-web/juminkanja/S2430/initialize?prefCd=30&kikanCd=1007300000&kikanKbn=1", "url2": "http://www.reimeikai.com/" }, "geometry": { "type": "Point", "coordinates": [ 135.155117, 33.897004 ] } },
{ "type": "Feature", "properties": { "内容": "整形外科北裏病院【1:病院】【診療科目:内科_整形外科_リハビリテーション科_麻酔科】【一般病床数:100療養病床数:0精神病床数:0感染症病床数:0合計病床数:100】和歌山県御坊市湯川町小松原４５４", "url": "https://www.iryou.teikyouseido.mhlw.go.jp/znk-web/juminkanja/S2430/initialize?prefCd=30&kikanCd=1007400000&kikanKbn=1", "url2": "http://www.kitaura-hp.jp/" }, "geometry": { "type": "Point", "coordinates": [ 135.157033, 33.906836 ] } },
{ "type": "Feature", "properties": { "内容": "独立行政法人　国立病院機構　和歌山病院【1:病院】【診療科目:内科_呼吸器内科_循環器内科_神経内科_外科_呼吸器外科_心臓血管外科_乳腺外科_小児科_皮膚科_歯科_リハビリテーション科_放射線科】【一般病床数:245療養病床数:0精神病床数:0感染症病床数:0合計病床数:260】和歌山県日高郡美浜町和田１１３８", "url": "https://www.iryou.teikyouseido.mhlw.go.jp/znk-web/juminkanja/S2430/initialize?prefCd=30&kikanCd=1007500000&kikanKbn=1", "url2": "https://wakayama.hosp.go.jp" }, "geometry": { "type": "Point", "coordinates": [ 135.135452, 33.892087 ] } },
{ "type": "Feature", "properties": { "内容": "医療法人研医会　田辺中央病院【1:病院】【診療科目:内科_外科_脳神経外科_肛門外科_整形外科_皮膚科_リハビリテーション科】【一般病床数:139療養病床数:0精神病床数:0感染症病床数:0合計病床数:139】和歌山県田辺市宝来町２４ー１", "url": "https://www.iryou.teikyouseido.mhlw.go.jp/znk-web/juminkanja/S2430/initialize?prefCd=30&kikanCd=1007600000&kikanKbn=1", "url2": "http://www.tanabechp.or.jp/" }, "geometry": { "type": "Point", "coordinates": [ 135.379356, 33.732803 ] } },
{ "type": "Feature", "properties": { "内容": "紀南病院【1:病院】【診療科目:内科_脳神経内科_呼吸器内科_循環器内科_消化器内科_外科_脳神経外科_呼吸器外科_心臓血管外科_整形外科_形成外科_小児科_小児外科_産婦人科_眼科_耳鼻いんこう科_皮膚科_泌尿器科_歯科口腔外科_リハビリテーション科_放射線科_病理診断科_麻酔科】【一般病床数:352療養病床数:0精神病床数:0感染症病床数:4合計病床数:356】和歌山県田辺市新庄町４６－７０", "url": "https://www.iryou.teikyouseido.mhlw.go.jp/znk-web/juminkanja/S2430/initialize?prefCd=30&kikanCd=1007700000&kikanKbn=1", "url2": "http://www.kinan-hp.tanabe.wakayama.jp" }, "geometry": { "type": "Point", "coordinates": [ 135.404521, 33.730276 ] } },
{ "type": "Feature", "properties": { "内容": "南紀医療福祉センター【1:病院】【診療科目:内科_整形外科_小児科_精神科_歯科】【一般病床数:64療養病床数:0精神病床数:0感染症病床数:0合計病床数:64】和歌山県西牟婁郡上富田町岩田１７７６－１", "url": "https://www.iryou.teikyouseido.mhlw.go.jp/znk-web/juminkanja/S2430/initialize?prefCd=30&kikanCd=1007800000&kikanKbn=1", "url2": "https://www.wfj.or.jp/" }, "geometry": { "type": "Point", "coordinates": [ 135.443934, 33.710473 ] } },
{ "type": "Feature", "properties": { "内容": "紀南こころの医療センター【1:病院】【診療科目:神経内科_精神科】【一般病床数:0療養病床数:0精神病床数:198感染症病床数:0合計病床数:198】和歌山県田辺市たきない町２５番１号", "url": "https://www.iryou.teikyouseido.mhlw.go.jp/znk-web/juminkanja/S2430/initialize?prefCd=30&kikanCd=1007900000&kikanKbn=1", "url2": "http://www.kinan-hp.tanabe.wakayama.jp/mhc/index.html" }, "geometry": { "type": "Point", "coordinates": [ 135.399134, 33.698807 ] } },
{ "type": "Feature", "properties": { "内容": "医療法人　洗心会　玉置病院【1:病院】【診療科目:内科_消化器内科_外科_脳神経外科_整形外科】【一般病床数:34療養病床数:32精神病床数:0感染症病床数:0合計病床数:66】和歌山県田辺市上屋敷二丁目５番１号", "url": "https://www.iryou.teikyouseido.mhlw.go.jp/znk-web/juminkanja/S2430/initialize?prefCd=30&kikanCd=1008000000&kikanKbn=1", "url2": "http://www.aikis.or.jp/~tamakihp/" }, "geometry": { "type": "Point", "coordinates": [ 135.376328, 33.730887 ] } },
{ "type": "Feature", "properties": { "内容": "独立行政法人国立病院機構南和歌山医療センター【1:病院】【診療科目:内科_呼吸器内科_循環器内科_消化器内科_腫瘍内科_外科_脳神経外科_呼吸器外科_心臓血管外科_乳腺外科_整形外科_形成外科_小児科_産婦人科_眼科_耳鼻いんこう科_皮膚科_泌尿器科_精神科_歯科口腔外科_リハビリテーション科_放射線科_病理診断科_救急科_麻酔科】【一般病床数:316療養病床数:0精神病床数:0感染症病床数:0合計病床数:316】和歌山県田辺市たきない町２７－１", "url": "https://www.iryou.teikyouseido.mhlw.go.jp/znk-web/juminkanja/S2430/initialize?prefCd=30&kikanCd=1008100000&kikanKbn=1", "url2": "https://minamiwakayama.hosp.go.jp/" }, "geometry": { "type": "Point", "coordinates": [ 135.399716, 33.700584 ] } },
{ "type": "Feature", "properties": { "内容": "白浜はまゆう病院【1:病院】【診療科目:内科_脳神経内科_呼吸器内科_循環器内科_消化器内科_外科_脳神経外科_乳腺外科_整形外科_小児科_婦人科_眼科_耳鼻いんこう科_皮膚科_泌尿器科_心療内科_リウマチ科_リハビリテーション科_麻酔科】【一般病床数:82療養病床数:128精神病床数:0感染症病床数:0合計病床数:210】和歌山県西牟婁郡白浜町１４４７", "url": "https://www.iryou.teikyouseido.mhlw.go.jp/znk-web/juminkanja/S2430/initialize?prefCd=30&kikanCd=1008200000&kikanKbn=1", "url2": "http://www.hamayu-hp.or.jp/" }, "geometry": { "type": "Point", "coordinates": [ 135.348222, 33.681843 ] } },
{ "type": "Feature", "properties": { "内容": "医療法人　宝山会　白浜小南病院【1:病院】【診療科目:内科_リハビリテーション科_放射線科_麻酔科】【一般病床数:22療養病床数:20精神病床数:0感染症病床数:0合計病床数:42】和歌山県西牟婁郡白浜町３２２０－９", "url": "https://www.iryou.teikyouseido.mhlw.go.jp/znk-web/juminkanja/S2430/initialize?prefCd=30&kikanCd=1008300000&kikanKbn=1", "url2": null }, "geometry": { "type": "Point", "coordinates": [ 135.356055, 33.680336 ] } },
{ "type": "Feature", "properties": { "内容": "医療法人芳純会　潮岬病院【1:病院】【診療科目:内科_精神科_心療内科】【一般病床数:0療養病床数:0精神病床数:151感染症病床数:0合計病床数:151】和歌山県東牟婁郡串本町潮岬４１７", "url": "https://www.iryou.teikyouseido.mhlw.go.jp/znk-web/juminkanja/S2430/initialize?prefCd=30&kikanCd=1008600000&kikanKbn=1", "url2": "https://shionomisaki-hp.com/" }, "geometry": { "type": "Point", "coordinates": [ 135.769982, 33.454285 ] } },
{ "type": "Feature", "properties": { "内容": "一般財団法人　新宮病院【1:病院】【診療科目:内科_整形外科_リハビリテーション科】【一般病床数:84療養病床数:0精神病床数:0感染症病床数:0合計病床数:84】和歌山県新宮市仲之町２－１－１５", "url": "https://www.iryou.teikyouseido.mhlw.go.jp/znk-web/juminkanja/S2430/initialize?prefCd=30&kikanCd=1008900000&kikanKbn=1", "url2": "http://hsp.shingu.or.jp" }, "geometry": { "type": "Point", "coordinates": [ 135.989111, 33.729203 ] } },
{ "type": "Feature", "properties": { "内容": "岩崎病院【1:病院】【診療科目:精神科】【一般病床数:0療養病床数:0精神病床数:157感染症病床数:0合計病床数:157】和歌山県新宮市三輪崎１３８４", "url": "https://www.iryou.teikyouseido.mhlw.go.jp/znk-web/juminkanja/S2430/initialize?prefCd=30&kikanCd=1009000000&kikanKbn=1", "url2": "https://www.ryomokai.or.jp/" }, "geometry": { "type": "Point", "coordinates": [ 135.98053, 33.69143 ] } },
{ "type": "Feature", "properties": { "内容": "医療法人日進会　日進会病院【1:病院】【診療科目:内科】【一般病床数:0療養病床数:82精神病床数:0感染症病床数:0合計病床数:82】和歌山県東牟婁郡那智勝浦町朝日１－２２１－１", "url": "https://www.iryou.teikyouseido.mhlw.go.jp/znk-web/juminkanja/S2430/initialize?prefCd=30&kikanCd=1009200000&kikanKbn=1", "url2": "http://www.nisshin.or.jp" }, "geometry": { "type": "Point", "coordinates": [ 135.936953, 33.630101 ] } },
{ "type": "Feature", "properties": { "内容": "新宮市立医療センター【1:病院】【診療科目:内科_脳神経内科_循環器内科_消化器内科_腎臓内科_外科_脳神経外科_呼吸器外科_心臓血管外科_整形外科_形成外科_小児科_産婦人科_眼科_耳鼻いんこう科_皮膚科_泌尿器科_歯科口腔外科_リハビリテーション科_放射線科_麻酔科】【一般病床数:281療養病床数:0精神病床数:0感染症病床数:4合計病床数:285】和歌山県新宮市蜂伏１８－７", "url": "https://www.iryou.teikyouseido.mhlw.go.jp/znk-web/juminkanja/S2430/initialize?prefCd=30&kikanCd=1009300000&kikanKbn=1", "url2": "http://www.hsp.shingu.wakayama.jp/" }, "geometry": { "type": "Point", "coordinates": [ 135.964087, 33.686791 ] } },
{ "type": "Feature", "properties": { "内容": "稲穂会病院【1:病院】【診療科目:内科_胃腸内科_外科_脳神経外科_肛門外科_整形外科_リハビリテーション科_放射線科】【一般病床数:0療養病床数:24精神病床数:0感染症病床数:0合計病床数:24】和歌山県紀の川市粉河７５６－３", "url": "https://www.iryou.teikyouseido.mhlw.go.jp/znk-web/juminkanja/S2430/initialize?prefCd=30&kikanCd=1009500000&kikanKbn=1", "url2": "http://inahokaihp.or.jp/" }, "geometry": { "type": "Point", "coordinates": [ 135.404412, 34.267774 ] } },
{ "type": "Feature", "properties": { "内容": "貴志川リハビリテーション病院【1:病院】【診療科目:内科_循環器内科_外科_脳神経外科_整形外科_リハビリテーション科_放射線科_救急科_麻酔科】【一般病床数:60療養病床数:108精神病床数:0感染症病床数:0合計病床数:168】和歌山県紀の川市貴志川町丸栖１４２３－３", "url": "https://www.iryou.teikyouseido.mhlw.go.jp/znk-web/juminkanja/S2430/initialize?prefCd=30&kikanCd=1009600000&kikanKbn=1", "url2": "http://www.mikurumakai.or.jp" }, "geometry": { "type": "Point", "coordinates": [ 135.326893, 34.240775 ] } },
{ "type": "Feature", "properties": { "内容": "角谷リハビリテーション病院【1:病院】【診療科目:内科_循環器内科_脳神経外科_整形外科_リハビリテーション科_放射線科】【一般病床数:60療養病床数:0精神病床数:0感染症病床数:0合計病床数:60】和歌山県和歌山市納定１０－１", "url": "https://www.iryou.teikyouseido.mhlw.go.jp/znk-web/juminkanja/S2430/initialize?prefCd=30&kikanCd=1009700000&kikanKbn=1", "url2": "http://www.sumiya.or.jp" }, "geometry": { "type": "Point", "coordinates": [ 135.191431, 34.237283 ] } },
{ "type": "Feature", "properties": { "内容": "医療法人　了生会　古梅記念病院【1:病院】【診療科目:内科_外科_脳神経外科_乳腺外科_整形外科_リハビリテーション科】【一般病床数:110療養病床数:0精神病床数:0感染症病床数:0合計病床数:110】和歌山県和歌山市新生町５番３７号", "url": "https://www.iryou.teikyouseido.mhlw.go.jp/znk-web/juminkanja/S2430/initialize?prefCd=30&kikanCd=1009800000&kikanKbn=1", "url2": "http://kobaikinenhp.sakura.ne.jp/" }, "geometry": { "type": "Point", "coordinates": [ 135.187044, 34.223359 ] } },
{ "type": "Feature", "properties": { "内容": "独立行政法人労働者健康安全機構和歌山労災病院【1:病院】【診療科目:内科_血液内科_脳神経内科_呼吸器内科_循環器内科_消化器内科_肝臓内科_外科_脳神経外科_整形外科_呼吸器・乳腺外科_小児科_産婦人科_眼科_頭頸部・耳鼻いんこう科_皮膚科_泌尿器科_リハビリテーション科_放射線科_病理診断科_救急科_麻酔科】【一般病床数:303療養病床数:0精神病床数:0感染症病床数:0合計病床数:303】和歌山県和歌山市木ノ本９３番１", "url": "https://www.iryou.teikyouseido.mhlw.go.jp/znk-web/juminkanja/S2430/initialize?prefCd=30&kikanCd=1010400000&kikanKbn=1", "url2": "https://www.wakayamah.johas.go.jp/" }, "geometry": { "type": "Point", "coordinates": [ 135.121436, 34.25627 ] } },
{ "type": "Feature", "properties": { "内容": "くしもと町立病院【1:病院】【診療科目:内科_外科_整形外科_小児科_婦人科_眼科_耳鼻いんこう科_泌尿器科】【一般病床数:90療養病床数:20精神病床数:0感染症病床数:0合計病床数:110】和歌山県東牟婁郡串本町サンゴ台６９１番地７", "url": "https://www.iryou.teikyouseido.mhlw.go.jp/znk-web/juminkanja/S2430/initialize?prefCd=30&kikanCd=1010600000&kikanKbn=1", "url2": "http://www.hsp.kushimoto.wakayama.jp/" }, "geometry": { "type": "Point", "coordinates": [ 135.784416, 33.48467 ] } },
{ "type": "Feature", "properties": { "内容": "堀口記念病院【1:病院】【診療科目:内科_呼吸器内科_循環器内科_消化器内科_外科_消化器外科_整形外科_リハビリテーション科_救急科】【一般病床数:150療養病床数:0精神病床数:0感染症病床数:0合計病床数:150】和歌山県和歌山市湊本町三丁目４番地１", "url": "https://www.iryou.teikyouseido.mhlw.go.jp/znk-web/juminkanja/S2430/initialize?prefCd=30&kikanCd=1010700000&kikanKbn=1", "url2": "https://horiguchi.or.jp" }, "geometry": { "type": "Point", "coordinates": [ 135.162462, 34.232412 ] } },
{ "type": "Feature", "properties": { "内容": "海南医療センター【1:病院】【診療科目:内科_外科_整形外科_小児科_婦人科_眼科_耳鼻いんこう科_皮膚科_泌尿器科_リハビリテーション科_放射線科_病理診断科_臨床検査科_麻酔科】【一般病床数:150療養病床数:0精神病床数:0感染症病床数:0合計病床数:150】和歌山県海南市日方１５２２番地１", "url": "https://www.iryou.teikyouseido.mhlw.go.jp/znk-web/juminkanja/S2430/initialize?prefCd=30&kikanCd=1010800000&kikanKbn=1", "url2": "http://kic-kainan-hsp.jp" }, "geometry": { "type": "Point", "coordinates": [ 135.210656, 34.153839 ] } },
{ "type": "Feature", "properties": { "内容": "桜ヶ丘病院【1:病院】【診療科目:内科_糖尿病内科_脂質代謝内科_脳神経内科_呼吸器内科_循環器内科_消化器内科_腎臓内科_人工透析内科_脳神経外科_婦人科_眼科_皮膚科_泌尿器科_リハビリテーション科_放射線科】【一般病床数:49療養病床数:50精神病床数:0感染症病床数:0合計病床数:99】和歌山県有田市箕島９０４番地", "url": "https://www.iryou.teikyouseido.mhlw.go.jp/znk-web/juminkanja/S2430/initialize?prefCd=30&kikanCd=1013200000&kikanKbn=1", "url2": "http://www.cherry-hill.or.jp" }, "geometry": { "type": "Point", "coordinates": [ 135.123639, 34.085622 ] } },
{ "type": "Feature", "properties": { "内容": "那智勝浦町立温泉病院【1:病院】【診療科目:内科_糖尿病・代謝内科_循環器内科_整形外科_小児科_眼科_リハビリテーション科】【一般病床数:120療養病床数:0精神病床数:0感染症病床数:0合計病床数:120】和歌山県東牟婁郡那智勝浦町天満１１８５－４", "url": "https://www.iryou.teikyouseido.mhlw.go.jp/znk-web/juminkanja/S2430/initialize?prefCd=30&kikanCd=1013400000&kikanKbn=1", "url2": "https://onsenhsp.com/" }, "geometry": { "type": "Point", "coordinates": [ 135.937565, 33.626415 ] } },
{ "type": "Feature", "properties": { "内容": "医療法人　晃和会　谷口病院【1:病院】【診療科目:内科_血液内科_糖尿病内科_循環器内科_胃腸内科_腎臓内科_人工透析内科_心臓血管外科_整形外科_リハビリテーション科_放射線科】【一般病床数:0療養病床数:43精神病床数:0感染症病床数:0合計病床数:43】和歌山県海南市日方３２７－１１", "url": "https://www.iryou.teikyouseido.mhlw.go.jp/znk-web/juminkanja/S2430/initialize?prefCd=30&kikanCd=1013500000&kikanKbn=1", "url2": "https://www.taniguchi-hp.or.jp" }, "geometry": { "type": "Point", "coordinates": [ 135.208933, 34.15806 ] } },
{ "type": "Feature", "properties": { "内容": "医療法人博文会　児玉病院【1:病院】【診療科目:内科_循環器内科_消化器内科_腎臓内科_人工透析内科_整形外科_リウマチ科_リハビリテーション科】【一般病床数:44療養病床数:0精神病床数:0感染症病床数:0合計病床数:0】和歌山県和歌山市友田町四丁目１３０番地", "url": "https://www.iryou.teikyouseido.mhlw.go.jp/znk-web/juminkanja/S2430/initialize?prefCd=30&kikanCd=1013600000&kikanKbn=1", "url2": "https://www.hakubunkai.com" }, "geometry": { "type": "Point", "coordinates": [ 135.188848, 34.233163 ] } },
{ "type": "Feature", "properties": { "内容": "国保すさみ病院【1:病院】【診療科目:内科_外科_リハビリテーション科】【一般病床数:25療養病床数:0精神病床数:0感染症病床数:0合計病床数:25】和歌山県西牟婁郡すさみ町周参見２９１６", "url": "https://www.iryou.teikyouseido.mhlw.go.jp/znk-web/juminkanja/S2430/initialize?prefCd=30&kikanCd=1013800000&kikanKbn=1", "url2": "https://www.town.susami.lg.jp/susami_hospital/index.html" }, "geometry": { "type": "Point", "coordinates": [ 135.511703, 33.555688 ] } }
]
}
